[{"OBJECT_NAME":"IRIDIUM 163","OBJECT_ID":"2018-061G","EPOCH":"2026-03-09T13:59:42.401760","MEAN_MOTION":14.34217733,"ECCENTRICITY":0.0002172,"INCLINATION":86.3916,"RA_OF_ASC_NODE":98.3882,"ARG_OF_PERICENTER":91.0803,"MEAN_ANOMALY":269.0641,"EPHEMERIS_TYPE":0,"CLASSIFICATION_TYPE":"U","NORAD_CAT_ID":43575,"ELEMENT_SET_NO":999,"REV_AT_EPOCH":39910,"BSTAR":2.0406e-5,"MEAN_MOTION_DOT":7.7e-7,"MEAN_MOTION_DDOT":0},{"OBJECT_NAME":"COSMOS 1867 COOLANT","OBJECT_ID":"1987-060AG","EPOCH":"2026-03-09T16:30:48.672576","MEAN_MOTION":14.33917423,"ECCENTRICITY":0.00144121,"INCLINATION":65.0124,"RA_OF_ASC_NODE":290.2224,"ARG_OF_PERICENTER":282.1454,"MEAN_ANOMALY":77.8017,"EPHEMERIS_TYPE":0,"CLASSIFICATION_TYPE":"U","NORAD_CAT_ID":39669,"ELEMENT_SET_NO":999,"REV_AT_EPOCH":62243,"BSTAR":0.00014899204,"MEAN_MOTION_DOT":3.16e-6,"MEAN_MOTION_DDOT":0}]
